NOAA 15                 
1 25338U 98030A   15354.49141370  .00000127  00000-0  72374-4 0  9995
2 25338  98.7795 353.3230 0010515 353.5380   6.5662 14.25687448915386
NOAA 18                 
1 28654U 05018A   15354.53667747  .00000048  00000-0  51594-4 0  9992
2 28654  99.1942 351.8298 0014639 155.3917 204.7955 14.12255910545377
METOP-A                 
1 29499U 06044A   15354.20713979  .00000052  00000-0  43694-4 0  9990
2 29499  98.7229  50.6072 0000572  10.3226  58.5381 14.21482473475710
NOAA 19                 
1 33591U 09005A   15354.46208424  .00000179  00000-0  12219-3 0  9998
2 33591  99.0158 305.0090 0014244   9.2701 350.8730 14.12018011353776
METOP-B                 
1 38771U 12049A   15354.81652334  .00000067  00000-0  50615-4 0  9996
2 38771  98.6739  51.7825 0001419  65.5502  46.1216 14.21498613168932
SARAL                   
1 39086U 13009A   15354.47924010  .00000058  00000-0  37606-4 0  9993
2 39086  98.5390 179.4977 0001729 112.1720 247.9647 14.32255323147145
